[{"OBJECT_NAME":"COSMOS 1953","OBJECT_ID":"1988-050A","EPOCH":"2026-03-05T19:53:09.624768","MEAN_MOTION":15.28442834,"ECCENTRICITY":0.0012341,"INCLINATION":82.5106,"RA_OF_ASC_NODE":162.1287,"ARG_OF_PERICENTER":134.8339,"MEAN_ANOMALY":225.3906,"EPHEMERIS_TYPE":0,"CLASSIFICATION_TYPE":"U","NORAD_CAT_ID":19210,"ELEMENT_SET_NO":999,"REV_AT_EPOCH":3719,"BSTAR":0.00038165,"MEAN_MOTION_DOT":0.00010622,"MEAN_MOTION_DDOT":0},{"OBJECT_NAME":"SL-8 R/B","OBJECT_ID":"1988-053B","EPOCH":"2026-03-05T15:13:13.591776","MEAN_MOTION":14.38913126,"ECCENTRICITY":0.0021348,"INCLINATION":74.0466,"RA_OF_ASC_NODE":119.9422,"ARG_OF_PERICENTER":299.8199,"MEAN_ANOMALY":173.7495,"EPHEMERIS_TYPE":0,"CLASSIFICATION_TYPE":"U","NORAD_CAT_ID":19257,"ELEMENT_SET_NO":999,"REV_AT_EPOCH":97601,"BSTAR":0.00012839,"MEAN_MOTION_DOT":3.7e-6,"MEAN_MOTION_DDOT":0},{"OBJECT_NAME":"COSMOS 1975","OBJECT_ID":"1988-093A","EPOCH":"2026-03-05T14:22:52.435200","MEAN_MOTION":15.2799841,"ECCENTRICITY":0.0011841,"INCLINATION":82.5192,"RA_OF_ASC_NODE":121.7917,"ARG_OF_PERICENTER":177.2898,"MEAN_ANOMALY":182.8407,"EPHEMERIS_TYPE":0,"CLASSIFICATION_TYPE":"U","NORAD_CAT_ID":19573,"ELEMENT_SET_NO":999,"REV_AT_EPOCH":1878,"BSTAR":0.00032709,"MEAN_MOTION_DOT":8.983e-5,"MEAN_MOTION_DDOT":0},{"OBJECT_NAME":"SL-14 R/B","OBJECT_ID":"1988-093B","EPOCH":"2026-03-05T10:18:08.051040","MEAN_MOTION":14.85650533,"ECCENTRICITY":0.0022015,"INCLINATION":82.5297,"RA_OF_ASC_NODE":46.0434,"ARG_OF_PERICENTER":54.8354,"MEAN_ANOMALY":60.7688,"EPHEMERIS_TYPE":0,"CLASSIFICATION_TYPE":"U","NORAD_CAT_ID":19574,"ELEMENT_SET_NO":999,"REV_AT_EPOCH":38,"BSTAR":9.2432e-5,"MEAN_MOTION_DOT":8.28e-6,"MEAN_MOTION_DDOT":0},{"OBJECT_NAME":"SL-16 R/B","OBJECT_ID":"1988-102B","EPOCH":"2026-03-05T16:00:14.133600","MEAN_MOTION":14.16149885,"ECCENTRICITY":0.0013697,"INCLINATION":71,"RA_OF_ASC_NODE":159.9612,"ARG_OF_PERICENTER":7.8268,"MEAN_ANOMALY":352.3066,"EPHEMERIS_TYPE":0,"CLASSIFICATION_TYPE":"U","NORAD_CAT_ID":19650,"ELEMENT_SET_NO":999,"REV_AT_EPOCH":92632,"BSTAR":9.6025e-5,"MEAN_MOTION_DOT":1.42e-6,"MEAN_MOTION_DDOT":0},{"OBJECT_NAME":"INTERCOSMOS 24","OBJECT_ID":"1989-080A","EPOCH":"2026-03-05T14:13:38.529984","MEAN_MOTION":12.59550817,"ECCENTRICITY":0.118677,"INCLINATION":82.6031,"RA_OF_ASC_NODE":107.0723,"ARG_OF_PERICENTER":302.3389,"MEAN_ANOMALY":46.8135,"EPHEMERIS_TYPE":0,"CLASSIFICATION_TYPE":"U","NORAD_CAT_ID":20261,"ELEMENT_SET_NO":999,"REV_AT_EPOCH":66628,"BSTAR":0.00028585,"MEAN_MOTION_DOT":9.61e-6,"MEAN_MOTION_DDOT":0},{"OBJECT_NAME":"SL-14 R/B","OBJECT_ID":"1989-080C","EPOCH":"2026-03-05T17:09:24.590016","MEAN_MOTION":12.50488178,"ECCENTRICITY":0.1230419,"INCLINATION":82.5972,"RA_OF_ASC_NODE":175.737,"ARG_OF_PERICENTER":193.832,"MEAN_ANOMALY":162.6001,"EPHEMERIS_TYPE":0,"CLASSIFICATION_TYPE":"U","NORAD_CAT_ID":20262,"ELEMENT_SET_NO":999,"REV_AT_EPOCH":65965,"BSTAR":0.00027084,"MEAN_MOTION_DOT":9.09e-6,"MEAN_MOTION_DDOT":0},{"OBJECT_NAME":"DELTA 1 R/B","OBJECT_ID":"1989-089B","EPOCH":"2026-03-05T13:13:47.217216","MEAN_MOTION":14.50659365,"ECCENTRICITY":0.007021,"INCLINATION":97.0708,"RA_OF_ASC_NODE":272.6481,"ARG_OF_PERICENTER":134.8691,"MEAN_ANOMALY":225.8238,"EPHEMERIS_TYPE":0,"CLASSIFICATION_TYPE":"U","NORAD_CAT_ID":20323,"ELEMENT_SET_NO":999,"REV_AT_EPOCH":89513,"BSTAR":0.00013091,"MEAN_MOTION_DOT":4.96e-6,"MEAN_MOTION_DDOT":0},{"OBJECT_NAME":"ARIANE 40 R/B","OBJECT_ID":"1990-005H","EPOCH":"2026-03-05T18:47:34.897056","MEAN_MOTION":14.39867547,"ECCENTRICITY":0.0009605,"INCLINATION":98.3092,"RA_OF_ASC_NODE":125.5608,"ARG_OF_PERICENTER":210.5753,"MEAN_ANOMALY":149.4877,"EPHEMERIS_TYPE":0,"CLASSIFICATION_TYPE":"U","NORAD_CAT_ID":20443,"ELEMENT_SET_NO":999,"REV_AT_EPOCH":89224,"BSTAR":0.00013441,"MEAN_MOTION_DOT":3.8e-6,"MEAN_MOTION_DDOT":0},{"OBJECT_NAME":"DELTA 2 R/B(1)","OBJECT_ID":"1990-008B","EPOCH":"2026-03-05T17:12:02.383200","MEAN_MOTION":15.55380339,"ECCENTRICITY":0.0086306,"INCLINATION":35.6041,"RA_OF_ASC_NODE":200.9171,"ARG_OF_PERICENTER":222.0016,"MEAN_ANOMALY":137.4078,"EPHEMERIS_TYPE":0,"CLASSIFICATION_TYPE":"U","NORAD_CAT_ID":20453,"ELEMENT_SET_NO":999,"REV_AT_EPOCH":92551,"BSTAR":0.00095688,"MEAN_MOTION_DOT":0.00080331,"MEAN_MOTION_DDOT":0},{"OBJECT_NAME":"COSMOS 2058","OBJECT_ID":"1990-010A","EPOCH":"2026-03-05T16:12:47.000736","MEAN_MOTION":15.11278337,"ECCENTRICITY":0.0009697,"INCLINATION":82.4669,"RA_OF_ASC_NODE":51.3825,"ARG_OF_PERICENTER":356.8379,"MEAN_ANOMALY":3.2788,"EPHEMERIS_TYPE":0,"CLASSIFICATION_TYPE":"U","NORAD_CAT_ID":20465,"ELEMENT_SET_NO":999,"REV_AT_EPOCH":94163,"BSTAR":0.00034121,"MEAN_MOTION_DOT":5.774e-5,"MEAN_MOTION_DDOT":0},{"OBJECT_NAME":"SL-14 R/B","OBJECT_ID":"1990-010B","EPOCH":"2026-03-05T15:21:44.542368","MEAN_MOTION":14.83565062,"ECCENTRICITY":0.0018786,"INCLINATION":82.499,"RA_OF_ASC_NODE":271.1938,"ARG_OF_PERICENTER":316.4946,"MEAN_ANOMALY":43.4786,"EPHEMERIS_TYPE":0,"CLASSIFICATION_TYPE":"U","NORAD_CAT_ID":20466,"ELEMENT_SET_NO":999,"REV_AT_EPOCH":92788,"BSTAR":6.6693e-5,"MEAN_MOTION_DOT":5.74e-6,"MEAN_MOTION_DDOT":0},{"OBJECT_NAME":"SL-14 R/B","OBJECT_ID":"1990-018B","EPOCH":"2026-03-05T12:27:23.683968","MEAN_MOTION":14.82139685,"ECCENTRICITY":0.0017651,"INCLINATION":82.5195,"RA_OF_ASC_NODE":226.9881,"ARG_OF_PERICENTER":104.6746,"MEAN_ANOMALY":255.6426,"EPHEMERIS_TYPE":0,"CLASSIFICATION_TYPE":"U","NORAD_CAT_ID":20511,"ELEMENT_SET_NO":999,"REV_AT_EPOCH":92196,"BSTAR":8.9986e-5,"MEAN_MOTION_DOT":7.41e-6,"MEAN_MOTION_DDOT":0},{"OBJECT_NAME":"HST","OBJECT_ID":"1990-037B","EPOCH":"2026-03-05T02:44:22.469280","MEAN_MOTION":15.29398003,"ECCENTRICITY":0.0001766,"INCLINATION":28.4704,"RA_OF_ASC_NODE":71.2101,"ARG_OF_PERICENTER":80.6022,"MEAN_ANOMALY":279.4773,"EPHEMERIS_TYPE":0,"CLASSIFICATION_TYPE":"U","NORAD_CAT_ID":20580,"ELEMENT_SET_NO":999,"REV_AT_EPOCH":77261,"BSTAR":0.00033044,"MEAN_MOTION_DOT":9.931e-5,"MEAN_MOTION_DDOT":0},{"OBJECT_NAME":"SL-16 R/B","OBJECT_ID":"1990-046B","EPOCH":"2026-03-05T17:43:22.081728","MEAN_MOTION":14.15013952,"ECCENTRICITY":0.0016188,"INCLINATION":70.9995,"RA_OF_ASC_NODE":306.2131,"ARG_OF_PERICENTER":304.8781,"MEAN_ANOMALY":55.0819,"EPHEMERIS_TYPE":0,"CLASSIFICATION_TYPE":"U","NORAD_CAT_ID":20625,"ELEMENT_SET_NO":999,"REV_AT_EPOCH":84783,"BSTAR":-8.6571e-5,"MEAN_MOTION_DOT":-2.16e-6,"MEAN_MOTION_DDOT":0},{"OBJECT_NAME":"COSMOS 2084","OBJECT_ID":"1990-055A","EPOCH":"2026-03-05T19:17:00.226176","MEAN_MOTION":15.05623615,"ECCENTRICITY":0.0017723,"INCLINATION":62.7925,"RA_OF_ASC_NODE":348.8316,"ARG_OF_PERICENTER":188.9261,"MEAN_ANOMALY":171.1527,"EPHEMERIS_TYPE":0,"CLASSIFICATION_TYPE":"U","NORAD_CAT_ID":20663,"ELEMENT_SET_NO":999,"REV_AT_EPOCH":93573,"BSTAR":0.00028168,"MEAN_MOTION_DOT":3.897e-5,"MEAN_MOTION_DDOT":0},{"OBJECT_NAME":"SL-6 R/B(2)","OBJECT_ID":"1990-055D","EPOCH":"2026-03-05T20:20:07.634112","MEAN_MOTION":15.03572989,"ECCENTRICITY":0.0024158,"INCLINATION":62.7817,"RA_OF_ASC_NODE":266.9177,"ARG_OF_PERICENTER":346.018,"MEAN_ANOMALY":14.0247,"EPHEMERIS_TYPE":0,"CLASSIFICATION_TYPE":"U","NORAD_CAT_ID":20666,"ELEMENT_SET_NO":999,"REV_AT_EPOCH":93761,"BSTAR":0.00022007,"MEAN_MOTION_DOT":2.839e-5,"MEAN_MOTION_DDOT":0}]
